IRIDIUM 921             
1 24873U 97034E   24151.89273192  .00045566  00000+0  12006-2 0  9997
2 24873  86.3794 296.6724 0002530 325.8856  34.2234 15.38333169472526
IRIDIUM 26              
1 24903U 97043A   24151.84342036  .00000767  00000+0  25557-3 0  9990
2 24903  86.3948 271.0310 0001911  91.1156 269.0260 14.36380232401841
IRIDIUM 22              
1 24907U 97043E   24151.81594890  .00000733  00000+0  24936-3 0  9991
2 24907  86.3949 274.2673 0002137  91.3336 268.8105 14.35269100401918
DUMMY MASS 1            
1 24925U 97048A   24151.88960243  .00000788  00000+0  86459-4 0  9991
2 24925  86.3322 311.9854 0008951  68.7361 291.4818 14.86221687448333
DUMMY MASS 2            
1 24926U 97048B   24151.92341882  .00000798  00000+0  88081-4 0  9993
2 24926  86.3323 313.5102 0009883  76.4464 283.7861 14.85979866448121
IRIDIUM 29              
1 24944U 97051A   24151.89393373  .00000758  00000+0  25594-3 0  9990
2 24944  86.3930 304.1572 0002331  87.5587 272.5877 14.35716493398400
IRIDIUM 33              
1 24946U 97051C   24151.90444216  .00000601  00000+0  20677-3 0  9991
2 24946  86.3846 303.4051 0006038 238.2445 121.8163 14.34372118397930
IRIDIUM 28              
1 24948U 97051E   24151.90930405  .00000782  00000+0  25914-3 0  9992
2 24948  86.3936 301.8838 0001677  92.8346 267.3043 14.36669263398942
